{
  "type": "FeatureCollection",
  "features": [
    {
      "type": "Feature",
      "properties": {
        "norad_id": 60182,
        "name": "ALOS-4 (DAICHI-4)",
        "group": "resource",
        "lat": 36.71991579133846,
        "lon": 83.25402830790914,
        "alt_km": 627.9711137011109,
        "timestamp": "2025-12-20T11:30:28.029011+00:00",
        "meta_object_name": "ALOS-4 (DAICHI-4)",
        "meta_object_id": "2024-123A",
        "meta_epoch": "2025-12-20T04:50:51.954144",
        "meta_mean_motion": 14.79474985,
        "meta_eccentricity": 0.0001387,
        "meta_inclination": 97.9224,
        "meta_ra_of_asc_node": 88.9427,
        "meta_arg_of_pericenter": 101.6124,
        "meta_mean_anomaly": 258.5243,
        "meta_ephemeris_type": 0,
        "meta_classification_type": "U",
        "meta_norad_cat_id": 60182,
        "meta_element_set_no": 999,
        "meta_rev_at_epoch": 7941,
        "meta_bstar": 0.00019301,
        "meta_mean_motion_dot": 1.39e-05,
        "meta_mean_motion_ddot": 0,
        "tle_line1": "1 60182U 24123A   25354.20199021  .00001390  00000+0  19301-3 0  9991",
        "tle_line2": "2 60182  97.9224  88.9427 0001387 101.6124 258.5243 14.79474985 79412"
      },
      "geometry": {
        "type": "Point",
        "coordinates": [
          83.25402830790914,
          36.71991579133846
        ]
      }
    },
    {
      "type": "Feature",
      "properties": {
        "norad_id": 60452,
        "name": "LEGION 3",
        "group": "resource",
        "lat": 41.544879120372855,
        "lon": -28.90348402252226,
        "alt_km": 522.7164791785308,
        "timestamp": "2025-12-20T11:30:28.029021+00:00",
        "meta_object_name": "LEGION 3",
        "meta_object_id": "2024-146A",
        "meta_epoch": "2025-12-20T01:42:39.461184",
        "meta_mean_motion": 15.15833125,
        "meta_eccentricity": 0.0015632,
        "meta_inclination": 45.0021,
        "meta_ra_of_asc_node": 270.828,
        "meta_arg_of_pericenter": 238.1588,
        "meta_mean_anomaly": 121.7769,
        "meta_ephemeris_type": 0,
        "meta_classification_type": "U",
        "meta_norad_cat_id": 60452,
        "meta_element_set_no": 999,
        "meta_rev_at_epoch": 7484,
        "meta_bstar": 0.0001754,
        "meta_mean_motion_dot": 3.154e-05,
        "meta_mean_motion_ddot": 0,
        "tle_line1": "1 60452U 24146A   25354.07129006  .00003154  00000+0  17540-3 0  9990",
        "tle_line2": "2 60452  45.0021 270.8280 0015632 238.1588 121.7769 15.15833125 74840"
      },
      "geometry": {
        "type": "Point",
        "coordinates": [
          -28.90348402252226,
          41.544879120372855
        ]
      }
    },
    {
      "type": "Feature",
      "properties": {
        "norad_id": 60453,
        "name": "LEGION 4",
        "group": "resource",
        "lat": 41.09778093108799,
        "lon": 61.068648590361256,
        "alt_km": 510.46530567474565,
        "timestamp": "2025-12-20T11:30:28.029032+00:00",
        "meta_object_name": "LEGION 4",
        "meta_object_id": "2024-146B",
        "meta_epoch": "2025-12-20T03:18:01.161216",
        "meta_mean_motion": 15.1589566,
        "meta_eccentricity": 0.0008758,
        "meta_inclination": 45.0393,
        "meta_ra_of_asc_node": 2.2456,
        "meta_arg_of_pericenter": 350.7384,
        "meta_mean_anomaly": 9.3332,
        "meta_ephemeris_type": 0,
        "meta_classification_type": "U",
        "meta_norad_cat_id": 60453,
        "meta_element_set_no": 999,
        "meta_rev_at_epoch": 7370,
        "meta_bstar": 0.00018604,
        "meta_mean_motion_dot": 3.362e-05,
        "meta_mean_motion_ddot": 0,
        "tle_line1": "1 60453U 24146B   25354.13751344  .00003362  00000+0  18604-3 0  9997",
        "tle_line2": "2 60453  45.0393   2.2456 0008758 350.7384   9.3332 15.15895660 73704"
      },
      "geometry": {
        "type": "Point",
        "coordinates": [
          61.068648590361256,
          41.09778093108799
        ]
      }
    },
    {
      "type": "Feature",
      "properties": {
        "norad_id": 60989,
        "name": "SENTINEL-2C",
        "group": "resource",
        "lat": -66.34717465516918,
        "lon": -133.28249065986304,
        "alt_km": 796.9744739435655,
        "timestamp": "2025-12-20T11:30:28.029042+00:00",
        "meta_object_name": "SENTINEL-2C",
        "meta_object_id": "2024-157A",
        "meta_epoch": "2025-12-20T03:38:23.299584",
        "meta_mean_motion": 14.30820273,
        "meta_eccentricity": 0.0001204,
        "meta_inclination": 98.5676,
        "meta_ra_of_asc_node": 66.5273,
        "meta_arg_of_pericenter": 95.83,
        "meta_mean_anomaly": 264.302,
        "meta_ephemeris_type": 0,
        "meta_classification_type": "U",
        "meta_norad_cat_id": 60989,
        "meta_element_set_no": 999,
        "meta_rev_at_epoch": 6738,
        "meta_bstar": 5.6239e-05,
        "meta_mean_motion_dot": 1.04e-06,
        "meta_mean_motion_ddot": 0,
        "tle_line1": "1 60989U 24157A   25354.15165856  .00000104  00000+0  56239-4 0  9990",
        "tle_line2": "2 60989  98.5676  66.5273 0001204  95.8300 264.3020 14.30820273 67387"
      },
      "geometry": {
        "type": "Point",
        "coordinates": [
          -133.28249065986304,
          -66.34717465516918
        ]
      }
    },
    {
      "type": "Feature",
      "properties": {
        "norad_id": 61735,
        "name": "IONOSFERA-M 1",
        "group": "resource",
        "lat": -69.38234011041345,
        "lon": -111.59739016772977,
        "alt_km": 823.3768966201278,
        "timestamp": "2025-12-20T11:30:28.029052+00:00",
        "meta_object_name": "IONOSFERA-M 1",
        "meta_object_id": "2024-199A",
        "meta_epoch": "2025-12-20T05:05:26.632320",
        "meta_mean_motion": 14.22715537,
        "meta_eccentricity": 6.01e-05,
        "meta_inclination": 98.7399,
        "meta_ra_of_asc_node": 224.0028,
        "meta_arg_of_pericenter": 12.6558,
        "meta_mean_anomaly": 347.4635,
        "meta_ephemeris_type": 0,
        "meta_classification_type": "U",
        "meta_norad_cat_id": 61735,
        "meta_element_set_no": 999,
        "meta_rev_at_epoch": 10225,
        "meta_bstar": 3.6308e-05,
        "meta_mean_motion_dot": 3.7e-07,
        "meta_mean_motion_ddot": 0,
        "tle_line1": "1 61735U 24199A   25354.21211380  .00000037  00000+0  36308-4 0  9997",
        "tle_line2": "2 61735  98.7399 224.0028 0000601  12.6558 347.4635 14.22715537102250"
      },
      "geometry": {
        "type": "Point",
        "coordinates": [
          -111.59739016772977,
          -69.38234011041345
        ]
      }
    },
    {
      "type": "Feature",
      "properties": {
        "norad_id": 61736,
        "name": "IONOSFERA-M 2",
        "group": "resource",
        "lat": 66.81192119417388,
        "lon": 65.22656319495324,
        "alt_km": 808.361255276277,
        "timestamp": "2025-12-20T11:30:28.029062+00:00",
        "meta_object_name": "IONOSFERA-M 2",
        "meta_object_id": "2024-199B",
        "meta_epoch": "2025-12-20T04:14:02.842656",
        "meta_mean_motion": 14.22717726,
        "meta_eccentricity": 0.0001804,
        "meta_inclination": 98.7398,
        "meta_ra_of_asc_node": 223.8798,
        "meta_arg_of_pericenter": 101.0973,
        "meta_mean_anomaly": 259.0407,
        "meta_ephemeris_type": 0,
        "meta_classification_type": "U",
        "meta_norad_cat_id": 61736,
        "meta_element_set_no": 999,
        "meta_rev_at_epoch": 10537,
        "meta_bstar": 3.6731e-05,
        "meta_mean_motion_dot": 3.8e-07,
        "meta_mean_motion_ddot": 0,
        "tle_line1": "1 61736U 24199B   25354.17642179  .00000038  00000+0  36731-4 0  9998",
        "tle_line2": "2 61736  98.7398 223.8798 0001804 101.0973 259.0407 14.22717726105374"
      },
      "geometry": {
        "type": "Point",
        "coordinates": [
          65.22656319495324,
          66.81192119417388
        ]
      }
    },
    {
      "type": "Feature",
      "properties": {
        "norad_id": 63772,
        "name": "BIOMASS",
        "group": "resource",
        "lat": 68.02906741745856,
        "lon": 19.966584777265425,
        "alt_km": 661.665560777632,
        "timestamp": "2025-12-20T11:30:28.029071+00:00",
        "meta_object_name": "BIOMASS",
        "meta_object_id": "2025-090A",
        "meta_epoch": "2025-12-20T01:11:17.011680",
        "meta_mean_motion": 14.67536115,
        "meta_eccentricity": 0.0001083,
        "meta_inclination": 98.07,
        "meta_ra_of_asc_node": 178.9528,
        "meta_arg_of_pericenter": 80.9367,
        "meta_mean_anomaly": 279.196,
        "meta_ephemeris_type": 0,
        "meta_classification_type": "U",
        "meta_norad_cat_id": 63772,
        "meta_element_set_no": 999,
        "meta_rev_at_epoch": 3441,
        "meta_bstar": 0.0001371,
        "meta_mean_motion_dot": 7.3e-06,
        "meta_mean_motion_ddot": 0,
        "tle_line1": "1 63772U 25090A   25354.04950245  .00000730  00000+0  13710-3 0  9993",
        "tle_line2": "2 63772  98.0700 178.9528 0001083  80.9367 279.1960 14.67536115 34411"
      },
      "geometry": {
        "type": "Point",
        "coordinates": [
          19.966584777265425,
          68.02906741745856
        ]
      }
    }
  ]
}